[{"OBJECT_NAME":"STARLINK-30324","OBJECT_ID":"2023-122J","EPOCH":"2026-03-09T22:00:01.999584","MEAN_MOTION":15.27512326,"ECCENTRICITY":0.00012545,"INCLINATION":43.0003,"RA_OF_ASC_NODE":91.4586,"ARG_OF_PERICENTER":268.3589,"MEAN_ANOMALY":278.7593,"EPHEMERIS_TYPE":0,"CLASSIFICATION_TYPE":"U","NORAD_CAT_ID":57640,"ELEMENT_SET_NO":999,"REV_AT_EPOCH":573,"BSTAR":0.0031210232,"MEAN_MOTION_DOT":0.00086454,"MEAN_MOTION_DDOT":0},{"OBJECT_NAME":"ATLAS 55E DEB","OBJECT_ID":"1985-093C","EPOCH":"2026-03-05T01:51:30.210336","MEAN_MOTION":3.90200878,"ECCENTRICITY":0.60048662,"INCLINATION":62.8539,"RA_OF_ASC_NODE":90.0067,"ARG_OF_PERICENTER":30.6787,"MEAN_ANOMALY":353.7406,"EPHEMERIS_TYPE":0,"CLASSIFICATION_TYPE":"U","NORAD_CAT_ID":26921,"ELEMENT_SET_NO":999,"REV_AT_EPOCH":16240,"BSTAR":0.0003615338,"MEAN_MOTION_DOT":2.72e-6,"MEAN_MOTION_DDOT":0}]
